{"type":"FeatureCollection","features":[{"type":"Feature","properties":{"name":"Argent Lakes Pub & Pizzeria (AL's Pub)","description":"","address":"1291 Sergeant William Jasper Blvd, Okatie, SC 29909","phone":"(843) 548-7677","category":"Dining","marker-symbol":"utensils","marker-color":"#E53935"},"geometry":{"coordinates":[-80.9546639783161,32.30913432724512],"type":"Point"},"id":0},{"type":"Feature","properties":{"name":"Argent Lakes Dog Park","description":"","address":"1021 Sgt. William Jasper Blvd, Okatie, SC 29909","phone":"","category":"Dog Park","marker-symbol":"dog","marker-color":"#F57C00"},"geometry":{"coordinates":[-80.95670026457908,32.30986907711325],"type":"Point"},"id":1},{"type":"Feature","properties":{"name":"Argent Lakes Golf Clubhouse","description":"","address":"1251 Sgt. William Jasper Blvd, Okatie, SC 29909","phone":"(843) 645-0507","category":"Golf Clubhouse","marker-symbol":"flag","marker-color":"#2E7D32"},"geometry":{"coordinates":[-80.95463975739277,32.30900186500873],"type":"Point"},"id":2},{"type":"Feature","properties":{"name":"Barataria Outdoor Pool","description":"","address":"122 Del Webb Blvd, Okatie, SC 29909","phone":"","category":"Pool","marker-symbol":"person-swimming","marker-color":"#0288D1"},"geometry":{"coordinates":[-80.95327911313763,32.29434649350744],"type":"Point"},"id":3},{"type":"Feature","properties":{"name":"Boat and RV Park/Campsite","description":"","address":"25 Okatie Maintenance Yard Road, Okatie, SC 29909","phone":"(843) 705-3525","category":"Recreation","marker-symbol":"caravan","marker-color":"#1E88E5"},"geometry":{"coordinates":[-80.94732272863969,32.27871892796357],"type":"Point"},"id":4},{"type":"Feature","properties":{"name":"Hidden Cypress Golf Clubhouse","description":"","address":"672 Cypress Hills Drive, Okatie, SC 29909","phone":"(843) 705-4999","category":"Golf Clubhouse","marker-symbol":"flag","marker-color":"#2E7D32"},"geometry":{"coordinates":[-80.97925929552832,32.277762307211994],"type":"Point"},"id":6},{"type":"Feature","properties":{"name":"Hidden Cypress Fitness Center","description":"","address":"672 Cypress Hills Dr, Okatie, SC 29909","phone":"(843) 705-4030","category":"Amenity Center","marker-symbol":"building","marker-color":"#8E24AA"},"geometry":{"coordinates":[-80.97865193154446,32.2777897942277],"type":"Point"},"id":45},{"type":"Feature","properties":{"name":"Hidden Cypress Outdoor Pool","description":"","address":"672 Cypress Hills Drive, Okatie, SC 29909","phone":"","category":"Pool","marker-symbol":"person-swimming","marker-color":"#0288D1"},"geometry":{"coordinates":[-80.97818193969826,32.27787010839829],"type":"Point"},"id":7},{"type":"Feature","properties":{"name":"Jameson’s Charhouse","description":"","address":"672 Cypress Hills Drive, Okatie, SC 29909","phone":"(843) 705-8200","category":"Dining","marker-symbol":"utensils","marker-color":"#E53935"},"geometry":{"coordinates":[-80.97889887186147,32.277791653185545],"type":"Point"},"id":8},{"type":"Feature","properties":{"name":"Lake Somerset","description":"","address":"2 Del Webb Blvd, Okatie, SC 29909","phone":"","category":"Lake","marker-symbol":"water","marker-color":"#0288D1"},"geometry":{"coordinates":[-80.94411993103132,32.2886826009621],"type":"Point"},"id":9},{"type":"Feature","properties":{"name":"Lake Somerset Gate","description":"","address":"2 Del Webb Blvd, Okatie, SC 29909","phone":"","category":"Gate","marker-symbol":"road-barrier","marker-color":"#6D4C41"},"geometry":{"coordinates":[-80.94315305079247,32.28663740933073],"type":"Point"},"id":9},{"type":"Feature","properties":{"name":"Lakehouse","description":"","address":"1251 Sgt. William Jasper Blvd, Okatie, SC 29909","phone":"(843) 645-4515","category":"Amenity Center","marker-symbol":"building","marker-color":"#8E24AA"},"geometry":{"coordinates":[-80.95519442409193,32.30970161373224],"type":"Point"},"id":10},{"type":"Feature","properties":{"name":"Lakehouse Outdoor Pool","description":"","address":"1251 Sgt. William Jasper Blvd, Okatie, SC 29909","phone":"","category":"Pool","marker-symbol":"person-swimming","marker-color":"#0288D1"},"geometry":{"coordinates":[-80.95624085344166,32.30968138716038],"type":"Point"},"id":11},{"type":"Feature","properties":{"name":"Logo Building","description":"","address":"124 Del Webb Blvd, Okatie, SC 29909","phone":"(843) 705-4034","category":"Tennis","marker-symbol":"table-tennis-paddle-ball","marker-color":"#43A047"},"geometry":{"coordinates":[-80.95318582494781,32.29417925066891],"type":"Point"},"id":12},{"type":"Feature","properties":{"name":"Magnolia Hall","description":"","address":"118 Sun City Lane, Okatie, SC 29909","phone":"","category":"Recreation","marker-symbol":"masks-theater","marker-color":"#1E88E5"},"geometry":{"coordinates":[-80.95261837041492,32.29296618407857],"type":"Point"},"id":13},{"type":"Feature","properties":{"name":"Main Gate","description":"","address":"1 Sun City Blvd, Okatie, SC 29909","phone":"(843) 705-4035","category":"Gate","marker-symbol":"road-barrier","marker-color":"#6D4C41"},"geometry":{"coordinates":[-80.95606003256361,32.29971140969949],"type":"Point"},"id":14},{"type":"Feature","properties":{"name":"Mulching Center","description":"","address":"851 Red Dam Road, Okatie, SC 29909","phone":"","category":"Ecocenter","marker-symbol":"leaf","marker-color":"#388E3C"},"geometry":{"coordinates":[-80.96781673120307,32.27734146385746],"type":"Point"},"id":15},{"type":"Feature","properties":{"name":"Nature Trail","description":"","address":"Between Col. T. Heyward Rd. and Sun  City Blvd, Okatie, SC 29909","phone":"","category":"Recreation","marker-symbol":"person-hiking","marker-color":"#1E88E5"},"geometry":{"coordinates":[-80.9664602900654,32.286987222408065],"type":"Point"},"id":16},{"type":"Feature","properties":{"name":"New River Sports Park","description":"","address":"831 Red Dam Road , Okatie, SC 29909","phone":"","category":"Recreation","marker-symbol":"baseball-bat-ball","marker-color":"#1E88E5"},"geometry":{"coordinates":[-80.97194546003838,32.27726309305376],"type":"Point"},"id":17},{"type":"Feature","properties":{"name":"North Gate","description":"","address":"401 West Fording Island Road, Okatie, SC 29909","phone":"(843) 705-4688","category":"Gate","marker-symbol":"road-barrier","marker-color":"#6D4C41"},"geometry":{"coordinates":[-80.95583586618888,32.30221014136519],"type":"Point"},"id":18},{"type":"Feature","properties":{"name":"Okatie Farms Andover","description":"","address":"51 Andover Place, Okatie, SC 29909","phone":"","category":"Ecocenter","marker-symbol":"leaf","marker-color":"#388E3C"},"geometry":{"coordinates":[-80.97750743120294,32.2847963290672],"type":"Point"},"id":20},{"type":"Feature","properties":{"name":"Okatie Farms East","description":"","address":"301 Sun City Blvd, Okatie, SC 29909","phone":"","category":"Ecocenter","marker-symbol":"leaf","marker-color":"#388E3C"},"geometry":{"coordinates":[-80.9717101023677,32.27980820010664],"type":"Point"},"id":21},{"type":"Feature","properties":{"name":"Okatie Farms West","description":"","address":"300 Sun City Blvd, Okatie, SC 29909","phone":"","category":"Ecocenter","marker-symbol":"leaf","marker-color":"#388E3C"},"geometry":{"coordinates":[-80.97207238887364,32.280086240845705],"type":"Point"},"id":22},{"type":"Feature","properties":{"name":"Palmetto Commons","description":"","address":"127 Sun City Lane, Okatie, SC 29909","phone":"","category":"Administration","marker-symbol":"briefcase","marker-color":"#546E7A"},"geometry":{"coordinates":[-80.95085399441535,32.290701043476915],"type":"Point"},"id":23},{"type":"Feature","properties":{"name":"Pavilion","description":"","address":"114B Sun City Lane, Okatie, SC 29909","phone":"","category":"Recreation","marker-symbol":"masks-theater","marker-color":"#1E88E5"},"geometry":{"coordinates":[-80.95255750489238,32.29362004197021],"type":"Point"},"id":24},{"type":"Feature","properties":{"name":"Lakehouse Pickleball Courts","description":"","address":"1251 Sgt. William Jasper Blvd, Okatie, SC 29909","phone":"","category":"Pickleball","marker-symbol":"table-tennis-paddle-ball","marker-color":"#FFB300"},"geometry":{"coordinates":[-80.95404300028856,32.30931800042232],"type":"Point"},"id":25},{"type":"Feature","properties":{"name":"New River Sports Park Pickleball Courts","description":"","address":"831 Red Dam Road, Okatie, SC 29909","phone":"","category":"Pickleball","marker-symbol":"table-tennis-paddle-ball","marker-color":"#FFB300"},"geometry":{"coordinates":[-80.97255286060518,32.27839839354194],"type":"Point"},"id":26},{"type":"Feature","properties":{"name":"Pinckney Hall","description":"","address":"114 Sun City Lane, Okatie, SC 29909","phone":"","category":"Recreation","marker-symbol":"masks-theater","marker-color":"#1E88E5"},"geometry":{"coordinates":[-80.95168256300602,32.293227727801124],"type":"Point"},"id":27},{"type":"Feature","properties":{"name":"Purrysburg Fitness Center","description":"","address":"122 Del Webb Blvd, Okatie, SC 29909","phone":"(843) 705-4022","category":"Amenity Center","marker-symbol":"building","marker-color":"#8E24AA"},"geometry":{"coordinates":[-80.95274782369593,32.29440869386999],"type":"Point"},"id":28},{"type":"Feature","properties":{"name":"Red Dam Dog Park","description":"","address":"839 Red Dam Road, Okatie, SC 29909","phone":"","category":"Dog Park","marker-symbol":"dog","marker-color":"#F57C00"},"geometry":{"coordinates":[-80.97017155345621,32.27712314413966],"type":"Point"},"id":29},{"type":"Feature","properties":{"name":"Riverbend Gate","description":"","address":"1 Tidewatch Drive, Okatie, SC 29909","phone":"(843) 379-5528","category":"Gate","marker-symbol":"road-barrier","marker-color":"#6D4C41"},"geometry":{"coordinates":[-80.9343930415489,32.311540816840015],"type":"Point"},"id":30},{"type":"Feature","properties":{"name":"Riverbend Lodge","description":"","address":"39 Tidewatch Drive, Okatie, SC 29909","phone":"","category":"Amenity Center","marker-symbol":"building","marker-color":"#8E24AA"},"geometry":{"coordinates":[-80.92971654824946,32.30754122373293],"type":"Point"},"id":31},{"type":"Feature","properties":{"name":"Riverbend Outdoor Pool","description":"","address":"39 Tidewatch Drive, Okatie, SC 29909","phone":"","category":"Pool","marker-symbol":"person-swimming","marker-color":"#0288D1"},"geometry":{"coordinates":[-80.92969414486002,32.30778415879295],"type":"Point"},"id":32},{"type":"Feature","properties":{"name":"Sun City West Dog Park","description":"","address":"Sundance Drive, Okatie, SC 29909","phone":"","category":"Dog Park","marker-symbol":"dog","marker-color":"#F57C00"},"geometry":{"coordinates":[-80.96874315060231,32.324546607398375],"type":"Point"},"id":33},{"type":"Feature","properties":{"name":"Sun City West Gate","description":"","address":"434 Sundance Drive, Okatie, SC 29909","phone":"(843) 705-4043","category":"Gate","marker-symbol":"road-barrier","marker-color":"#6D4C41"},"geometry":{"coordinates":[-80.95978232462046,32.31749587366806],"type":"Point"},"id":34},{"type":"Feature","properties":{"name":"Lakehouse Tennis Courts","description":"","address":"1251 Sgt. William Jasper Blvd, Okatie, SC 29909","phone":"","category":"Tennis","marker-symbol":"table-tennis-paddle-ball","marker-color":"#43A047"},"geometry":{"coordinates":[-80.954191849268,32.30969001837694],"type":"Point"},"id":35},{"type":"Feature","properties":{"name":"Town Square Tennis Courts","description":"","address":"124 Del Webb Blvd, Okatie, SC 29909","phone":"","category":"Tennis","marker-symbol":"table-tennis-paddle-ball","marker-color":"#43A047"},"geometry":{"coordinates":[-80.95366953812885,32.29380760543188],"type":"Point"},"id":36},{"type":"Feature","properties":{"name":"Veterans Memorial Field","description":"","address":"831 Red Dam Roa, Okatie, SC 29909","phone":"","category":"Softball","marker-symbol":"baseball-ball","marker-color":"#FDD835"},"geometry":{"coordinates":[-80.97190449881887,32.27706757705754],"type":"Point"},"id":37},{"type":"Feature","properties":{"name":"Volleyball Court","description":"","address":"831 Red Dam Road, Okatie, SC 29909","phone":"","category":"Volleyball","marker-symbol":"volleyball-ball","marker-color":"#039BE5"},"geometry":{"coordinates":[-80.97227893754265,32.27815365420165],"type":"Point"},"id":38},{"type":"Feature","properties":{"name":"Woodworkers' Shop","description":"","address":"841 Red Dam Road, Okatie, SC 29909","phone":"","category":"Woodworking","marker-symbol":"hammer","marker-color":"#795548"},"geometry":{"coordinates":[-80.96920118172837,32.27673522274396],"type":"Point"},"id":39},{"type":"Feature","properties":{"name":"Yemassee Crafts Center","description":"","address":"132 Del Webb Blvd, Okatie, SC 29909","phone":"","category":"Crafts","marker-symbol":"palette","marker-color":"#D81B60"},"geometry":{"coordinates":[-80.9518584707094,32.293939738194894],"type":"Point"},"id":40},{"type":"Feature","properties":{"name":"Okatie Creek Golf Clubhouse","description":"","address":"60 Sun City Club Ln, Okatie, SC 29909","phone":"(843) 705-4653","category":"Golf Clubhouse","marker-symbol":"flag","marker-color":"#2E7D32"},"geometry":{"coordinates":[-80.9519110396051,32.289453460356285],"type":"Point"},"id":41},{"type":"Feature","properties":{"name":"The Clubhouse at Okatie Creek","description":"","address":"60 Sun City Club Ln, Okatie, SC 29909","phone":"(843) 705-4005","category":"Dining","marker-symbol":"utensils","marker-color":"#E53935"},"geometry":{"coordinates":[-80.95197354807156,32.289434772269395],"type":"Point"},"id":42},{"type":"Feature","properties":{"name":"Town Square Bocce Ball Courts","description":"","address":"60 Sun City Club Ln, Okatie, SC 29909","phone":"","category":"Bocce","marker-symbol":"circle-dot","marker-color":"#B71C1C"},"geometry":{"coordinates":[-80.95280702736781,32.29397874907641],"type":"Point"},"id":43},{"type":"Feature","properties":{"name":"Computer Club","description":"","address":"128 Del Webb Blvd, Okatie, SC 29909","phone":"","category":"Computer","marker-symbol":"computer","marker-color":"#3F51B5"},"geometry":{"coordinates":[-80.95176599663787,32.294169680605805],"type":"Point"},"id":44},{"type":"Feature","properties":{"name":"Tidewatch Drive Gate","description":"","address":", Okatie, SC 29909","phone":"","category":"Gate","marker-symbol":"road-barrier","marker-color":"#6D4C41"},"geometry":{"coordinates":[-80.9425470454178,32.31094822957407],"type":"Point"},"id":47},{"type":"Feature","properties":{"name":"William Pope Drive Gate","description":"","address":", Okatie, SC 29909","phone":"","category":"Gate","marker-symbol":"road-barrier","marker-color":"#6D4C41"},"geometry":{"coordinates":[-80.95068158170965,32.29741557585442],"type":"Point"},"id":48},{"type":"Feature","properties":{"name":"Kings Creek Drive Gate","description":"","address":", Okatie, SC 29909","phone":"","category":"Gate","marker-symbol":"road-barrier","marker-color":"#6D4C41"},"geometry":{"coordinates":[-80.94654533566415,32.300795862084456],"type":"Point"},"id":49},{"type":"Feature","properties":{"name":"Sgt. WilliamJasper Gate","description":"","address":", Okatie, SC 29909","phone":"","category":"Gate","marker-symbol":"road-barrier","marker-color":"#6D4C41"},"geometry":{"coordinates":[-80.95819046352271,32.31530743070061],"type":"Point"},"id":50},{"type":"Feature","properties":{"name":"Dreamscape Gate","description":"","address":", Okatie, SC 29909","phone":"","category":"Gate","marker-symbol":"road-barrier","marker-color":"#6D4C41"},"geometry":{"coordinates":[-80.95264029045335,32.31998678802132],"type":"Point"},"id":51},{"type":"Feature","properties":{"name":"Sundance Drive Gate","description":"","address":", Okatie, SC 29909","phone":"","category":"Gate","marker-symbol":"road-barrier","marker-color":"#6D4C41"},"geometry":{"coordinates":[-80.97096984256551,32.32200164026148],"type":"Point"},"id":52},{"type":"Feature","properties":{"name":"Millennium Bridge","description":"","address":", Okatie, SC 29909","phone":"","category":"Bridge","marker-symbol":"road","marker-color":"#666666"},"geometry":{"coordinates":[-80.95033678947077,32.29967238186035],"type":"Point"},"id":53},{"type":"Feature","properties":{"name":"Argent Blvd Bridge","description":"","address":", Okatie, SC 29909","phone":"","category":"Bridge","marker-symbol":"road","marker-color":"#666666"},"geometry":{"coordinates":[-80.95842447799986,32.316209920982],"type":"Point"},"id":54},{"type":"Feature","properties":{"name":"Bull Hill Gate","description":"","address":", Okatie, SC 29909","phone":"","category":"Gate","marker-symbol":"road-barrier","marker-color":"#6D4C41"},"geometry":{"coordinates":[-80.95327699877635,32.271372145262326],"type":"Point"},"id":55},{"type":"Feature","properties":{"name":"Breakwater Fitness Collective","description":"","address":"1290 Sundance Drive, Okatie, SC 29909","phone":"(854) 540-1924","category":"Amenity Center","marker-symbol":"building","marker-color":"#8E24AA"},"geometry":{"coordinates":[-80.96230636410654,32.32489094253397],"type":"Point"},"id":56},{"type":"Feature","properties":{"name":"Breakwater Outdoor Pool","description":"","address":"1190 Sundance Drive, Okatie, SC 29909","phone":"","category":"Pool","marker-symbol":"person-swimming","marker-color":"#0288D1"},"geometry":{"coordinates":[-80.96196184957164,32.32440649102901],"type":"Point"},"id":57},{"type":"Feature","properties":{"name":"Breakwater Outdoor Courts","description":"","address":"1354 Sundance Drive, Okatie, SC 29909","phone":"","category":"Pickleball","marker-symbol":"table-tennis-paddle-ball","marker-color":"#FFB300"},"geometry":{"coordinates":[-80.96217447963615,32.32570745352386],"type":"Point"},"id":58},{"type":"Feature","properties":{"name":"Breakwater Outdoor Courts","description":"","address":"1354 Sundance Drive, Okatie, SC 29909","phone":"","category":"Tennis","marker-symbol":"table-tennis-paddle-ball","marker-color":"#43A047"},"geometry":{"coordinates":[-80.96287427478515,32.325273043300996],"type":"Point"},"id":59},{"type":"Feature","properties":{"name":"The Brackish Bar & Lounge (Brackish Bar)","description":"","address":"1190 Sundance Drive, Okatie, SC 29909","phone":"(854) 540-1003","category":"Dining","marker-symbol":"utensils","marker-color":"#E53935"},"geometry":{"coordinates":[-80.96234632422312,32.32408820634872],"type":"Point"},"id":"the-brackish-bar-lounge"}]}