{"type":"FeatureCollection","features":[{"type":"Feature","properties":{"label":"Sun City, Hilton Head","strokeColor":"#ff0000","fillColor":"#ff0000","fillOpacity":0.2},"geometry":{"coordinates":[[[-80.95838537838624,32.26607052264771],[-80.95476294630888,32.26967993839121],[-80.94846501403747,32.275427974665995],[-80.94396737586592,32.28479568291809],[-80.93945640390346,32.28985276681756],[-80.95106810644862,32.29707834222033],[-80.94994130494143,32.29987589301406],[-80.94726040361863,32.29940982283969],[-80.94485254305333,32.30473316798694],[-80.94427581312982,32.309550700360006],[-80.93453714290474,32.309368547150626],[-80.9348993735147,32.30457428289583],[-80.93186543876297,32.30398674475941],[-80.93177013593049,32.30563264473142],[-80.92543129986903,32.309122262101084],[-80.92461123252009,32.310026010672075],[-80.92141970487519,32.30996473118039],[-80.92077439136479,32.311946582689274],[-80.92188450192828,32.31237190073341],[-80.92322640442738,32.314286532688925],[-80.92948203851284,32.314503275762604],[-80.93284088862208,32.31276808146459],[-80.93994723154522,32.31259171289575],[-80.94108100779633,32.31616393422435],[-80.942273338623,32.31708866072251],[-80.9424393242735,32.32031569714172],[-80.94255464900901,32.321046138814665],[-80.94274591670933,32.321907613714124],[-80.94418918024658,32.32204771775871],[-80.94607691792991,32.32142245314879],[-80.94733625225906,32.321690947813835],[-80.94858789601065,32.32227408382449],[-80.94995335756556,32.32258470342798],[-80.95734860650391,32.31673114710033],[-80.95928130324423,32.31858628642404],[-80.95744972176614,32.31988106998412],[-80.95246756338962,32.324134964274066],[-80.95343223915755,32.324617974243395],[-80.95448149796027,32.32471978286414],[-80.95529110483146,32.32510749092282],[-80.95620340647547,32.32533708221597],[-80.9571157081194,32.32549519815059],[-80.95842406422594,32.325464454298555],[-80.9591016305968,32.32567722221962],[-80.96042766690127,32.325842340898845],[-80.9616040179805,32.32629089399758],[-80.96263939733474,32.32664414706445],[-80.96373824226944,32.326993278583814],[-80.96476367964816,32.3276106064973],[-80.96629620156092,32.32902026142242],[-80.96687997623977,32.329813941274864],[-80.96780854796997,32.33098577576622],[-80.96796315645456,32.33136211961616],[-80.96834331969782,32.331833756964436],[-80.96846973383678,32.33231730428734],[-80.96879350839042,32.3328484970293],[-80.9698330158477,32.33507309518335],[-80.96997030426758,32.335939819160046],[-80.96968467751356,32.33683036696083],[-80.97570353411035,32.337009844756906],[-80.97592781677756,32.33472441879887],[-80.97547255217296,32.33227121940844],[-80.97622964439974,32.32998473120594],[-80.9760521681578,32.328032268069],[-80.97535888353491,32.326509717588564],[-80.97171482692865,32.321853415719914],[-80.97135998008433,32.3211890747868],[-80.97097245799164,32.32013629797408],[-80.96985237097445,32.32064831499066],[-80.9683962368752,32.32129808653922],[-80.96823704264378,32.31861217637952],[-80.9670728238304,32.31740994456526],[-80.9666810262517,32.316862437968865],[-80.96606367391374,32.31641023923119],[-80.96537437408847,32.3162794482965],[-80.96465687991856,32.31643458504732],[-80.96375293995435,32.316722402332346],[-80.96254395315773,32.316947311969685],[-80.96115579011595,32.31732677892769],[-80.95961500973513,32.315738439764246],[-80.96361428127074,32.31464075991231],[-80.96854259600171,32.30501162964762],[-80.96107440630256,32.303043631820955],[-80.96141828331817,32.30100771492596],[-80.96615744803337,32.3015952884016],[-80.96950886733222,32.30310617689739],[-80.97439970869783,32.29586327318374],[-80.98663871428286,32.30374376168466],[-80.99136329663425,32.30351054282177],[-80.99146226249565,32.29621789889771],[-80.99364300302129,32.28705504954938],[-80.99527604755386,32.2829601682337],[-80.99577291038293,32.27577860048226],[-80.99151148519151,32.27049889606123],[-80.98902074549355,32.26824783617986],[-80.98707198436398,32.266704684256695],[-80.96794758037882,32.26408873905672],[-80.95838537838624,32.26607052264771]]],"type":"Polygon"}}]}